OBJECT_NAME,OBJECT_ID,EPOCH,MEAN_MOTION,ECCENTRICITY,INCLINATION,RA_OF_ASC_NODE,ARG_OF_PERICENTER,MEAN_ANOMALY,EPHEMERIS_TYPE,CLASSIFICATION_TYPE,NORAD_CAT_ID,ELEMENT_SET_NO,REV_AT_EPOCH,BSTAR,MEAN_MOTION_DOT,MEAN_MOTION_DDOT
ONEWEB-0198,2021-031G,2026-07-10T05:08:33.497376,13.14502687,.0002456,87.8960,285.1218,102.9387,257.2017,0,U,48216,999,25151,-.54436403E-3,-.189E-5,0
ONEWEB-0189,2021-031H,2026-07-10T05:26:37.510656,13.14502404,.00023661,87.8970,285.1081,103.4621,256.6773,0,U,48217,999,25125,-.17271644E-3,-.51E-6,0
ONEWEB-0196,2021-031J,2026-07-10T04:54:39.273408,13.14502267,.00021837,87.8968,285.1211,99.2321,260.9056,0,U,48218,999,25125,-.46273556E-3,-.159E-5,0
ONEWEB-0183,2021-031K,2026-07-09T06:22:48.038592,13.14501888,.00019832,87.8967,285.3061,92.1445,267.9912,0,U,48219,999,25122,.24407982E-3,.103E-5,0
ONEWEB-0185,2021-031L,2026-07-10T04:55:46.681824,13.14503520,.00022515,87.8975,285.1138,90.1848,269.9539,0,U,48220,999,25127,-.43730262E-3,-.149E-5,0
ONEWEB-0192,2021-031N,2026-07-10T05:33:28.770336,13.14503192,.000211,87.8969,285.1124,100.8952,259.2416,0,U,48222,999,25120,.928481E-6,.13E-6,0
ONEWEB-0219,2021-031P,2026-07-10T05:03:46.347840,13.14503335,.0002242,87.8978,285.1098,95.6962,264.4423,0,U,48223,999,25140,-.53907385E-3,-.187E-5,0
ONEWEB-0202,2021-031Q,2026-07-10T06:26:00.283776,13.14502513,.00026039,87.8974,285.1108,110.8171,249.3238,0,U,48224,999,25139,.15220832E-4,.18E-6,0
ONEWEB-0204,2021-031R,2026-07-10T05:25:27.651936,13.14499581,.00018576,87.8969,285.1136,88.6576,271.4767,0,U,48225,999,25128,-.26280913E-3,-.85E-6,0
ONEWEB-0205,2021-031S,2026-07-10T04:50:05.038944,13.14502332,.00023426,87.8981,285.1126,97.7252,262.4143,0,U,48226,999,25129,-.35119066E-3,-.117E-5,0
ONEWEB-0206,2021-031T,2026-07-09T06:15:56.519712,13.14501869,.00018801,87.8975,285.3006,102.9897,257.1443,0,U,48227,999,25112,.53558329E-3,.211E-5,0
ONEWEB-0182,2021-031U,2026-07-10T05:54:01.092672,13.14503788,.00019503,87.8969,285.1116,93.7218,266.4135,0,U,48228,999,25146,.51769005E-3,.205E-5,0
ONEWEB-0186,2021-031V,2026-07-09T04:35:28.490208,13.14502615,.00021312,87.8985,285.3137,101.1848,258.9522,0,U,48229,999,25127,.25021886E-3,.106E-5,0
ONEWEB-0181,2021-031W,2026-07-09T05:53:05.471808,13.14504809,.0002241,87.8959,285.3289,101.2601,258.8781,0,U,48230,999,25113,.54144416E-3,.214E-5,0
ONEWEB-0188,2021-031X,2026-07-10T04:43:13.657440,13.14502109,.00020589,87.8962,285.1391,97.7321,262.4042,0,U,48231,999,25116,-.19270133E-3,-.59E-6,0
ONEWEB-0220,2021-031Y,2026-07-10T05:40:18.327936,13.14503752,.00022998,87.8972,285.1081,97.5146,262.6245,0,U,48232,999,25143,.34747194E-3,.142E-5,0
ONEWEB-0165,2021-031Z,2026-07-10T06:21:26.095104,13.14503611,.000241,87.8971,285.1133,103.7881,256.3517,0,U,48233,999,25139,.23447719E-3,.1E-5,0
ONEWEB-0199,2021-031AA,2026-07-10T05:58:35.601888,13.14502000,.00018532,87.8986,285.1022,106.2115,253.9219,0,U,48234,999,25129,.73794406E-3,.286E-5,0
ONEWEB-0203,2021-031AB,2026-07-10T05:44:52.963296,13.14501526,.0002003,87.8969,285.1090,108.2812,251.8536,0,U,48235,999,25130,.4516509E-3,.18E-5,0
ONEWEB-0197,2021-031AC,2026-07-09T05:23:13.026912,13.14502122,.00020105,87.8966,285.2954,92.8752,267.2608,0,U,48236,999,25108,-.23385267E-3,-.74E-6,0
ONEWEB-0194,2021-031AD,2026-07-10T04:38:39.778944,13.14503833,.00018817,87.8963,285.1264,108.7782,251.3552,0,U,48237,999,25138,.60376265E-4,.35E-6,0
ONEWEB-0193,2021-031AE,2026-07-10T05:01:30.085536,13.14502191,.00017381,87.8969,285.1118,109.7268,250.4050,0,U,48238,999,25133,-.62874167E-3,-.22E-5,0
ONEWEB-0191,2021-031AF,2026-07-10T05:17:29.294880,13.14506789,.00021073,87.8982,285.1108,96.4585,263.6784,0,U,48239,999,25119,-.58774836E-3,-.205E-5,0
ONEWEB-0195,2021-031AG,2026-07-08T19:51:24.131232,13.14503192,.0002428,87.8984,285.3867,104.2320,255.9080,0,U,48240,999,25099,-.55116508E-3,-.192E-5,0
ONEWEB-0201,2021-031AH,2026-07-10T04:27:26.462880,13.14502160,.00020766,87.8972,285.1316,91.6013,268.5355,0,U,48241,999,25140,.35542273E-3,.145E-5,0
ONEWEB-0207,2021-031AJ,2026-07-10T05:48:17.448768,13.14504527,.00019825,87.8975,285.1075,92.5945,267.5412,0,U,48242,999,25132,.33077835E-3,.135E-5,0
ONEWEB-0208,2021-031AK,2026-07-10T05:22:02.870976,13.14502492,.00024047,87.8960,285.1160,105.3197,254.8199,0,U,48243,999,25133,-.41946996E-3,-.143E-5,0
ONEWEB-0200,2021-031AL,2026-07-09T13:52:39.603360,13.14501919,.0002125,87.8984,285.2330,99.8545,260.2825,0,U,48244,999,25117,.43411871E-4,.29E-6,0
ONEWEB-0217,2021-031AM,2026-07-10T04:52:21.982080,13.14502621,.00023694,87.8979,285.1129,104.4516,255.6877,0,U,48245,999,25120,-.44411658E-3,-.152E-5,0
